     3.02           N: GNSS NAV DATA    E: GALILEO          RINEX VERSION / TYPE
Spider v7.5.1.8670  SMO                 20250909 090350 UTC PGM / RUN BY / DATE
GAL    1.0175D+02 -1.0547D-01  2.1820D-02  0.0000D+00       IONOSPHERIC CORR
GAUT  0.0000000000D+00 0.000000000D+00 172800 2383          TIME SYSTEM CORR
GPGA  6.9849193096D-10 2.042810365D-14 172800 2383          TIME SYSTEM CORR
    18    18  2185     7                                    LEAP SECONDS
                                                            END OF HEADER
E15 2025 09 09 07 50 00-1.988665317185D-04-2.614797267597D-12 0.000000000000D+00
     8.100000000000D+01-5.856250000000D+01 2.279737731925D-09-1.977295022572D+00
    -2.786517143250D-06 2.228941302747D-04 1.415796577930D-05 5.440610452652D+03
     2.010000000000D+05-9.313225746155D-09 5.442181943580D-02 4.656612873077D-08
     9.995771514634D-01 5.553125000000D+01-1.784730548185D+00-5.074497087458D-09
    -2.278666283440D-10 5.170000000000D+02 2.383000000000D+03 0.000000000000D+00
     3.120000000000D+00 0.000000000000D+00 4.423782229424D-09 4.656612873077D-09
     2.016850000000D+05
E05 2025 09 09 07 50 00 4.882977576926D-03 2.984279490192D-12 0.000000000000D+00
     8.100000000000D+01-7.256250000000D+01 3.621936528475D-09 1.224487613556D+00
    -3.537163138390D-06 1.867207465693D-04 2.384185791016D-06 5.440606115341D+03
     2.010000000000D+05 8.009374141693D-08 2.140208962145D+00-5.587935447693D-09
     9.653505123465D-01 2.965312500000D+02 7.749466757996D-01-6.108825885690D-09
    -4.614477966403D-10 2.580000000000D+02 2.383000000000D+03 0.000000000000D+00
     3.120000000000D+00 0.000000000000D+00 1.862645149231D-09 0.000000000000D+00
     2.017000000000D+05
E09 2025 09 09 07 50 00-1.042444433551D-03-1.537614480185D-11 0.000000000000D+00
     8.100000000000D+01-7.284375000000D+01 3.578720431108D-09 2.209196948640D+00
    -3.511086106300D-06 3.954377025366D-04 2.395361661911D-06 5.440607278824D+03
     2.010000000000D+05 4.097819328308D-08 2.142155882282D+00 3.352761268616D-08
     9.711627063563D-01 2.935937500000D+02 5.847779960194D-01-6.118826302247D-09
    -4.289464339280D-10 2.580000000000D+02 2.383000000000D+03 0.000000000000D+00
     3.120000000000D+00 0.000000000000D+00-4.656612873077D-10 0.000000000000D+00
     2.017000000000D+05
E24 2025 09 09 07 50 00-1.662491704337D-04-2.162892087654D-11 0.000000000000D+00
     8.100000000000D+01 1.622187500000D+02 3.277993654294D-09-3.753879097846D-02
     7.349997758865D-06 4.418053431436D-04 8.234754204750D-06 5.440629901886D+03
     2.010000000000D+05 4.284083843231D-08-2.040243922314D+00-5.401670932770D-08
     9.603974389226D-01 1.641250000000D+02 7.226585326229D-01-5.891316825564D-09
     7.289589487591D-10 2.580000000000D+02 2.383000000000D+03 0.000000000000D+00
     3.120000000000D+00 0.000000000000D+00-5.587935447693D-09 0.000000000000D+00
     2.017000000000D+05
E34 2025 09 09 07 50 00-2.041356055997D-04-2.344791028008D-12 0.000000000000D+00
     8.100000000000D+01-7.071875000000D+01 2.345454941377D-09 1.862035997845D-01
    -3.369525074959D-06 3.314461791888D-04 1.434236764908D-05 5.440606950760D+03
     2.010000000000D+05-5.960464477539D-08 5.261002172715D-02-6.146728992462D-08
     9.994378436264D-01 4.953125000000D+01 3.117285846919D+00-5.158786312728D-09
    -2.653681996367D-10 2.580000000000D+02 2.383000000000D+03 0.000000000000D+00
     3.120000000000D+00 0.000000000000D+00 2.095475792885D-09 0.000000000000D+00
     2.017000000000D+05
E16 2025 09 09 07 50 00-6.162043428048D-05-2.373212737439D-12 0.000000000000D+00
     8.100000000000D+01 1.479062500000D+02 3.256921399242D-09 2.876879144192D+00
     6.869435310364D-06 3.488783258945D-04 7.921829819679D-06 5.440622482300D+03
     2.010000000000D+05 7.450580596924D-09-2.046251474405D+00-6.891787052155D-08
     9.645349208882D-01 1.748437500000D+02-2.587460986090D+00-5.821313909662D-09
     7.032435744847D-10 2.580000000000D+02 2.383000000000D+03 0.000000000000D+00
     3.120000000000D+00 0.000000000000D+00-4.423782229424D-09 0.000000000000D+00
     2.017000000000D+05
E25 2025 09 09 07 50 00 2.028548624367D-05 2.415845301584D-13 0.000000000000D+00
     8.100000000000D+01 1.369687500000D+02 3.296565909139D-09 1.261476436574D+00
     6.500631570816D-06 2.635625423864D-04 7.845461368561D-06 5.440613376617D+03
     2.010000000000D+05-7.450580596924D-09-2.042501861761D+00-4.470348358154D-08
     9.626092408587D-01 1.742500000000D+02-1.343214190080D+00-5.817028016852D-09
     6.803854701865D-10 2.580000000000D+02 2.383000000000D+03 0.000000000000D+00
     3.120000000000D+00 0.000000000000D+00 1.862645149231D-09 0.000000000000D+00
     2.017000000000D+05
E16 2025 09 09 08 00 00-6.162031786516D-05-2.373212737439D-12 0.000000000000D+00
     8.200000000000D+01 1.513125000000D+02 3.240849366648D-09 2.951810154924D+00
     6.997957825661D-06 3.484701737761D-04 7.977709174156D-06 5.440623369217D+03
     2.016000000000D+05 1.490116119385D-08-2.046254978093D+00-7.078051567078D-08
     9.645353144131D-01 1.733437500000D+02-2.588006525797D+00-5.824171171536D-09
     7.071723207019D-10 5.170000000000D+02 2.383000000000D+03 0.000000000000D+00
     3.120000000000D+00 0.000000000000D+00-4.423782229424D-09-3.259629011154D-09
     2.022640000000D+05
E05 2025 09 09 08 00 00 4.882980021648D-03 2.998490344908D-12 0.000000000000D+00
     8.200000000000D+01-7.231250000000D+01 3.632651290886D-09 1.299072418872D+00
    -3.544613718987D-06 1.867349492386D-04 2.376735210419D-06 5.440606039047D+03
     2.016000000000D+05 7.636845111847D-08 2.140205364830D+00 5.587935447693D-09
     9.653502124483D-01 2.962812500000D+02 7.747477335700D-01-6.117040513576D-09
    -4.643050666164D-10 5.170000000000D+02 2.383000000000D+03 0.000000000000D+00
     3.120000000000D+00 0.000000000000D+00 1.862645149231D-09 2.328306436539D-09
     2.022640000000D+05
E24 2025 09 09 08 00 00-1.662627910264D-04-2.161471002182D-11 0.000000000000D+00
     8.200000000000D+01 1.632187500000D+02 3.261207304206D-09 3.632543063142D-02
     7.381662726402D-06 4.420892801136D-04 8.329749107361D-06 5.440630620956D+03
     2.016000000000D+05 4.470348358154D-08-2.040247471354D+00-4.842877388000D-08
     9.603978602430D-01 1.612500000000D+02 7.231794397150D-01-5.892031141033D-09
     7.318162187353D-10 5.170000000000D+02 2.383000000000D+03 0.000000000000D+00
     3.120000000000D+00 0.000000000000D+00-5.587935447693D-09-6.519258022308D-09
     2.022640000000D+05
E34 2025 09 09 08 00 00-2.041356638074D-04-2.344791028008D-12 0.000000000000D+00
     8.200000000000D+01-7.425000000000D+01 2.362955608959D-09 2.616088812428D-01
    -3.514811396599D-06 3.311743494123D-04 1.431629061699D-05 5.440606094360D+03
     2.016000000000D+05-4.656612873077D-08 5.260691302623D-02-6.891787052155D-08
     9.994376256516D-01 5.012500000000D+01 3.116265365007D+00-5.165929467412D-09
    -2.585822111989D-10 5.170000000000D+02 2.383000000000D+03 0.000000000000D+00
     3.120000000000D+00 0.000000000000D+00 2.095475792885D-09 2.793967723846D-09
     2.022640000000D+05
E25 2025 09 09 08 00 00 2.028606832027D-05 2.415845301584D-13 0.000000000000D+00
     8.200000000000D+01 1.381250000000D+02 3.290851369186D-09 1.335328058071D+00
     6.539747118950D-06 2.635094569996D-04 7.828697562218D-06 5.440613670349D+03
     2.016000000000D+05-7.450580596924D-09-2.042505350821D+00-4.842877388000D-08
     9.626096343837D-01 1.747187500000D+02-1.342680211815D+00-5.819170963257D-09
     6.814569464275D-10 5.170000000000D+02 2.383000000000D+03 0.000000000000D+00
     3.120000000000D+00 0.000000000000D+00 1.862645149231D-09 1.862645149231D-09
     2.022640000000D+05
E15 2025 09 09 08 00 00-1.988680451177D-04-2.614797267597D-12 0.000000000000D+00
     8.200000000000D+01-5.828125000000D+01 2.275451826961D-09-1.902210725821D+00
    -2.771615982056D-06 2.229472156614D-04 1.410767436028D-05 5.440610776901D+03
     2.016000000000D+05-1.303851604462D-08 5.441878826953D-02 5.029141902924D-08
     9.995770007829D-01 5.687500000000D+01-1.785429727938D+00-5.077711507066D-09
    -2.282237870910D-10 5.170000000000D+02 2.383000000000D+03 0.000000000000D+00
     3.120000000000D+00 0.000000000000D+00 4.423782229424D-09 4.656612873077D-09
     2.022850000000D+05
E05 2025 09 09 08 00 00 4.882979439571D-03 2.984279490192D-12 0.000000000000D+00
     8.200000000000D+01-7.231250000000D+01 3.632651290886D-09 1.299072418872D+00
    -3.544613718987D-06 1.867349492386D-04 2.376735210419D-06 5.440606039047D+03
     2.016000000000D+05 7.636845111847D-08 2.140205364830D+00 5.587935447693D-09
     9.653502124483D-01 2.962812500000D+02 7.747477335700D-01-6.117040513576D-09
    -4.643050666164D-10 2.580000000000D+02 2.383000000000D+03 0.000000000000D+00
     3.120000000000D+00 0.000000000000D+00 1.862645149231D-09 0.000000000000D+00
     2.023000000000D+05
E24 2025 09 09 08 00 00-1.662620925345D-04-2.161471002182D-11 0.000000000000D+00
     8.200000000000D+01 1.632187500000D+02 3.261207304206D-09 3.632543063142D-02
     7.381662726402D-06 4.420892801136D-04 8.329749107361D-06 5.440630620956D+03
     2.016000000000D+05 4.470348358154D-08-2.040247471354D+00-4.842877388000D-08
     9.603978602430D-01 1.612500000000D+02 7.231794397150D-01-5.892031141033D-09
     7.318162187353D-10 2.580000000000D+02 2.383000000000D+03 0.000000000000D+00
     3.120000000000D+00 0.000000000000D+00-5.587935447693D-09 0.000000000000D+00
     2.023000000000D+05
E34 2025 09 09 08 00 00-2.041369443759D-04-2.344791028008D-12 0.000000000000D+00
     8.200000000000D+01-7.425000000000D+01 2.362955608959D-09 2.616088812428D-01
    -3.514811396599D-06 3.311743494123D-04 1.431629061699D-05 5.440606094360D+03
     2.016000000000D+05-4.656612873077D-08 5.260691302623D-02-6.891787052155D-08
     9.994376256516D-01 5.012500000000D+01 3.116265365007D+00-5.165929467412D-09
    -2.585822111989D-10 2.580000000000D+02 2.383000000000D+03 0.000000000000D+00
     3.120000000000D+00 0.000000000000D+00 2.095475792885D-09 0.000000000000D+00
     2.023000000000D+05
